OBJECT_NAME,OBJECT_ID,EPOCH,MEAN_MOTION,ECCENTRICITY,INCLINATION,RA_OF_ASC_NODE,ARG_OF_PERICENTER,MEAN_ANOMALY,EPHEMERIS_TYPE,CLASSIFICATION_TYPE,NORAD_CAT_ID,ELEMENT_SET_NO,REV_AT_EPOCH,BSTAR,MEAN_MOTION_DOT,MEAN_MOTION_DDOT
LEMUR-2-CELIJO-SB-PK,2025-276DW,2026-07-03T21:54:43.091136,15.00180138,.00076546,97.5207,255.1400,92.2115,267.9985,0,U,66781,999,2513,.64611748E-3,.8025E-4,0
LEMUR-2-FINNIAN,2025-276DX,2026-07-04T02:03:35.587584,15.00507764,.00083208,97.5332,255.5473,39.2121,320.9704,0,U,66782,999,2253,.28654186E-3,.3556E-4,0
LEMUR-2-STARLIGHT,2025-276DY,2026-07-03T22:09:54.769248,14.99235322,.00146728,97.5224,254.9901,79.9278,280.3601,0,U,66783,999,3270,.62836592E-3,.7624E-4,0
LEMUR-2-TARTIFLETTE,2025-276DZ,2026-07-04T02:55:49.123776,14.99241777,.00136657,97.5229,255.1900,86.9505,273.3282,0,U,66784,999,3273,.61675909E-3,.7481E-4,0
LEMUR-2-VUKASIN,2025-276EA,2026-07-02T04:01:06.227616,15.00442804,.00049534,97.5271,253.6348,89.5693,270.6099,0,U,66785,999,3239,.15220199E-3,.1857E-4,0
LEMUR-2-HOTSPUR-TOM,2025-276EB,2026-07-03T17:10:03.750816,14.99139197,.00141365,97.5221,254.7746,79.6258,280.6558,0,U,66786,999,3260,.60433899E-3,.731E-4,0
LEMUR-2-MYRA,2025-276EC,2026-07-03T17:36:09.038016,15.00477728,.00182909,97.5212,255.0731,89.0099,271.3220,0,U,66787,999,3269,.69490641E-3,.8728E-4,0
LEMUR-2 FIKRETDENGIZ,2026-004A,2026-07-03T22:35:39.440544,14.88450934,.00105879,97.8021,183.2431,86.9100,273.3328,0,U,67363,999,2577,.59506872E-3,.5475E-4,0
TWILIGHT-1 OBJECT B,2026-004B,2026-07-03T12:03:29.385216,14.87761532,.00102245,97.8065,182.8180,78.8863,281.3503,0,U,67364,999,2571,.24883431E-3,.2218E-4,0
LEMUR-2-MARIO-SOUSA,2026-004C,2026-07-03T17:18:31.927104,14.88650061,.0010168,97.7991,183.0216,88.6151,271.6231,0,U,67365,999,2575,.5638686E-3,.521E-4,0
LEMUR-2-SONNENBLUME,2026-004E,2026-07-03T10:52:30.210816,14.88402592,.00097231,97.7988,182.7356,90.4138,269.8193,0,U,67367,999,2571,.34800901E-3,.3174E-4,0
LEMUR-2-WOBLER,2026-004F,2026-07-03T13:53:21.408864,14.88632236,.00099432,97.8041,182.9982,81.5968,278.6376,0,U,67368,999,2573,.4672853E-3,.4306E-4,0
LEMUR-2-GRAM-E-SUE,2026-004H,2026-07-03T23:21:42.089184,14.88549081,.00088555,97.7974,183.2639,91.0454,269.1778,0,U,67370,999,2579,.31276423E-3,.2857E-4,0
LEMUR-2-KATIE,2026-004AA,2026-07-03T22:37:33.261312,14.90169297,.00043577,97.8037,183.7475,59.3163,300.8484,0,U,67387,999,2580,.69218802E-3,.6652E-4,0
LEMUR-2-HCS-BAZUS,2026-004AB,2026-07-03T22:35:27.246048,14.90216236,.00037902,97.8027,183.7259,57.9302,302.2283,0,U,67388,999,2580,.39296097E-3,.3755E-4,0
