LEMUR-2-CELIJO-SB-PK    
1 66781U 25276DW  26184.91299874  .00008025  00000+0  64612-3 0  9996
2 66781  97.5207 255.1400 0007654  92.2115 267.9985 15.00180138 25133
LEMUR-2-FINNIAN         
1 66782U 25276DX  26185.08582856  .00003556  00000+0  28654-3 0  9991
2 66782  97.5332 255.5473 0008320  39.2121 320.9704 15.00507764 22534
LEMUR-2-STARLIGHT       
1 66783U 25276DY  26184.92355057  .00007624  00000+0  62837-3 0  9996
2 66783  97.5224 254.9901 0014672  79.9278 280.3601 14.99235322 32705
LEMUR-2-TARTIFLETTE     
1 66784U 25276DZ  26185.12209634  .00007481  00000+0  61676-3 0  9990
2 66784  97.5229 255.1900 0013665  86.9505 273.3282 14.99241777 32736
LEMUR-2-VUKASIN         
1 66785U 25276EA  26183.16743319  .00001857  00000+0  15220-3 0  9991
2 66785  97.5271 253.6348 0004953  89.5693 270.6099 15.00442804 32395
LEMUR-2-HOTSPUR-TOM     
1 66786U 25276EB  26184.71532119  .00007310  00000+0  60434-3 0  9995
2 66786  97.5221 254.7746 0014136  79.6258 280.6558 14.99139197 32606
LEMUR-2-MYRA            
1 66787U 25276EC  26184.73343794  .00008728  00000+0  69491-3 0  9993
2 66787  97.5212 255.0731 0018290  89.0099 271.3220 15.00477728 32698
LEMUR-2 FIKRETDENGIZ    
1 67363U 26004A   26184.94142871  .00005475  00000+0  59507-3 0  9993
2 67363  97.8021 183.2431 0010587  86.9100 273.3328 14.88450934 25776
TWILIGHT-1 OBJECT B     
1 67364U 26004B   26184.50242344  .00002218  00000+0  24883-3 0  9993
2 67364  97.8065 182.8180 0010224  78.8863 281.3503 14.87761532 25711
LEMUR-2-MARIO-SOUSA     
1 67365U 26004C   26184.72120286  .00005210  00000+0  56387-3 0  9997
2 67365  97.7991 183.0216 0010168  88.6151 271.6231 14.88650061 25757
LEMUR-2-SONNENBLUME     
1 67367U 26004E   26184.45312744  .00003174  00000+0  34801-3 0  9995
2 67367  97.7988 182.7356 0009723  90.4138 269.8193 14.88402592 25713
LEMUR-2-WOBLER          
1 67368U 26004F   26184.57872001  .00004306  00000+0  46729-3 0  9996
2 67368  97.8041 182.9982 0009943  81.5968 278.6376 14.88632236 25731
LEMUR-2-GRAM-E-SUE      
1 67370U 26004H   26184.97340381  .00002857  00000+0  31276-3 0  9994
2 67370  97.7974 183.2639 0008855  91.0454 269.1778 14.88549081 25790
LEMUR-2-KATIE           
1 67387U 26004AA  26184.94274608  .00006652  00000+0  69219-3 0  9992
2 67387  97.8037 183.7475 0004357  59.3163 300.8484 14.90169297 25808
LEMUR-2-HCS-BAZUS       
1 67388U 26004AB  26184.94128757  .00003755  00000+0  39296-3 0  9999
2 67388  97.8027 183.7259 0003790  57.9302 302.2283 14.90216236 25806
